 2002  312  524 59.0 LV                                                        1
 ACTION:SPL 02-06-05 09:48 OP:lo   STATUS:               ID:20020312052459     I
 2002-03-12-0524-59S.MVO___014                                                 6
 VOLC MAIN e                                                                   3
 STAT SP IPHASW D HRMM SECON CODA AMPLIT PERI AZIMU VELO SNR AR TRES W  DIS CAZ7

