 2002  312  835 32.0 LV                                                        1
 ACTION:SPL 02-06-05 09:48 OP:lo   STATUS:               ID:20020312083532     I
 2002-03-12-0835-32S.MVO___014                                                 6
 2002-03-12-0835-41S.SPN___011                                                 6
 VOLC MAIN l                                                                   3
 STAT SP IPHASW D HRMM SECON CODA AMPLIT PERI AZIMU VELO SNR AR TRES W  DIS CAZ7

