 2002  312  242 50.0 LV                                                        1
 ACTION:SPL 02-06-05 09:48 OP:lo   STATUS:               ID:20020312024250     I
 2002-03-12-0242-50S.MVO___014                                                 6
 2002-03-12-0242-56S.SPN___011                                                 6
 VOLC MAIN r                                                                   3
 STAT SP IPHASW D HRMM SECON CODA AMPLIT PERI AZIMU VELO SNR AR TRES W  DIS CAZ7

