 2002  312 1235 39.0 LV                                                        1
 ACTION:SPL 02-06-05 09:48 OP:lo   STATUS:               ID:20020312123539     I
 2002-03-12-1235-39S.MVO___014                                                 6
 2002-03-12-1235-48S.SPN___011                                                 6
 VOLC MAIN r                                                                   3
 STAT SP IPHASW D HRMM SECON CODA AMPLIT PERI AZIMU VELO SNR AR TRES W  DIS CAZ7

