 2002  312 18 6 56.0 LV                                                        1
 ACTION:SPL 02-06-05 09:48 OP:lo   STATUS:               ID:20020312180656     I
 2002-03-12-1806-56S.MVO___014                                                 6
 2002-03-12-1807-05S.SPN___011                                                 6
 VOLC MAIN l                                                                   3
 STAT SP IPHASW D HRMM SECON CODA AMPLIT PERI AZIMU VELO SNR AR TRES W  DIS CAZ7

