 2002  312 23 1 41.6 LV                                                        1
 ACTION:SPL 02-06-05 09:48 OP:lo   STATUS:               ID:20020312230141     I
 2002-03-12-2301-41S.SPN___011                                                 6
 2002-03-12-2301-52S.MVO___014                                                 6
 VOLC MAIN r                                                                   3
 STAT SP IPHASW D HRMM SECON CODA AMPLIT PERI AZIMU VELO SNR AR TRES W  DIS CAZ7

