 2002  312 2332 19.0 LV                                                        1
 ACTION:SPL 02-06-05 09:48 OP:lo   STATUS:               ID:20020312233219     I
 2002-03-12-2332-19S.MVO___014                                                 6
 2002-03-12-2332-28S.SPN___011                                                 6
 VOLC MAIN l                                                                   3
      STAT CMP   MAX AVG  TOTAL ENG             FREQUENCY BINS (Hz)       MAX  3
                AMP (m/s)   (J/kg)   0  1  2  3  4  5  6  7  8  9  10 30  (Hz) 3
 STAT SP IPHASW D HRMM SECON CODA AMPLIT PERI AZIMU VELO SNR AR TRES W  DIS CAZ7

