 2002  312  1 5 47.8 LV                                                        1
 ACTION:SPL 02-06-05 09:48 OP:lo   STATUS:               ID:20020312010547     I
 2002-03-12-0105-47S.SPN___011                                                 6
 VOLC MAIN e                                                                   3
 STAT SP IPHASW D HRMM SECON CODA AMPLIT PERI AZIMU VELO SNR AR TRES W  DIS CAZ7

