 2002  312  435 58.0 LV                                                        1
 ACTION:SPL 02-06-05 09:48 OP:lo   STATUS:               ID:20020312043558     I
 2002-03-12-0435-58S.MVO___014                                                 6
 2002-03-12-0436-06S.SPN___011                                                 6
 VOLC MAIN l                                                                   3
 STAT SP IPHASW D HRMM SECON CODA AMPLIT PERI AZIMU VELO SNR AR TRES W  DIS CAZ7

