 2002  312  146 29.2 LV                                                        1
 ACTION:SPL 02-06-05 09:48 OP:lo   STATUS:               ID:20020312014629     I
 2002-03-12-0146-29S.SPN___011                                                 6
 2002-03-12-0146-39S.MVO___014                                                 6
 VOLC MAIN l                                                                   3
 STAT SP IPHASW D HRMM SECON CODA AMPLIT PERI AZIMU VELO SNR AR TRES W  DIS CAZ7

