 2002  312  048 39.0 LV                                                        1
 ACTION:SPL 02-06-05 09:48 OP:lo   STATUS:               ID:20020312004839     I
 2002-03-12-0048-39S.MVO___014                                                 6
 2002-03-12-0048-48S.SPN___011                                                 6
 VOLC MAIN e                                                                   3
 STAT SP IPHASW D HRMM SECON CODA AMPLIT PERI AZIMU VELO SNR AR TRES W  DIS CAZ7

