 2002  312  134 37.0 LV                                                        1
 ACTION:SPL 02-06-05 09:48 OP:lo   STATUS:               ID:20020312013437     I
 2002-03-12-0134-37S.MVO___014                                                 6
 VOLC MAIN n                                                                   3
 STAT SP IPHASW D HRMM SECON CODA AMPLIT PERI AZIMU VELO SNR AR TRES W  DIS CAZ7

