 2002  312 1440 30.0 LV                                                        1
 ACTION:SPL 02-06-05 09:48 OP:lo   STATUS:               ID:20020312144030     I
 2002-03-12-1440-30S.MVO___014                                                 6
 VOLC MAIN n                                                                   3
 STAT SP IPHASW D HRMM SECON CODA AMPLIT PERI AZIMU VELO SNR AR TRES W  DIS CAZ7

