 2002  312 2023 59.0 LV                                                        1
 ACTION:SPL 02-06-05 09:48 OP:lo   STATUS:               ID:20020312202359     I
 2002-03-12-2023-59S.MVO___014                                                 6
 2002-03-12-2024-06S.SPN___011                                                 6
 VOLC MAIN e                                                                   3
 STAT SP IPHASW D HRMM SECON CODA AMPLIT PERI AZIMU VELO SNR AR TRES W  DIS CAZ7

