 2002  312 2315 19.4 LV                                                        1
 ACTION:SPL 02-06-05 09:48 OP:lo   STATUS:               ID:20020312231519     I
 2002-03-12-2315-19S.SPN___011                                                 6
 VOLC MAIN h                                                                   3
 STAT SP IPHASW D HRMM SECON CODA AMPLIT PERI AZIMU VELO SNR AR TRES W  DIS CAZ7

